[{"OBJECT_NAME":"TIANMU-1 07","OBJECT_ID":"2023-101A","EPOCH":"2026-03-06T13:47:20.454720","MEAN_MOTION":15.29118809,"ECCENTRICITY":0.00046097,"INCLINATION":97.2728,"RA_OF_ASC_NODE":118.5929,"ARG_OF_PERICENTER":142.4105,"MEAN_ANOMALY":217.7458,"EPHEMERIS_TYPE":0,"CLASSIFICATION_TYPE":"U","NORAD_CAT_ID":57399,"ELEMENT_SET_NO":999,"REV_AT_EPOCH":14596,"BSTAR":0.00029794732,"MEAN_MOTION_DOT":8.352e-5,"MEAN_MOTION_DDOT":0},{"OBJECT_NAME":"STARLINK-35924","OBJECT_ID":"2025-265A","EPOCH":"2026-03-09T22:22:55.640352","MEAN_MOTION":15.27601307,"ECCENTRICITY":0.00022008,"INCLINATION":43.0005,"RA_OF_ASC_NODE":276.3057,"ARG_OF_PERICENTER":256.5279,"MEAN_ANOMALY":103.5327,"EPHEMERIS_TYPE":0,"CLASSIFICATION_TYPE":"U","NORAD_CAT_ID":66516,"ELEMENT_SET_NO":999,"REV_AT_EPOCH":1715,"BSTAR":0.0015060725,"MEAN_MOTION_DOT":0.00041443,"MEAN_MOTION_DDOT":0}]
